CCSDS_OMM_VERS = 2.0
CREATION_DATE  = 
ORIGINATOR     = 

OBJECT_NAME    = 2026-023G
OBJECT_ID      = 2026-023G
CENTER_NAME    = EARTH
REF_FRAME      = TEME
TIME_SYSTEM    = UTC
MEAN_ELEMENT_THEORY = SGP/SGP4

EPOCH          = 2026-02-20T19:56:08.581632
MEAN_MOTION    = 15.22695863
ECCENTRICITY   = .0022851
INCLINATION    = 96.6280
RA_OF_ASC_NODE = 129.2227
ARG_OF_PERICENTER = 176.1046
MEAN_ANOMALY   = 184.0375

EPHEMERIS_TYPE = 0
CLASSIFICATION_TYPE = U
NORAD_CAT_ID   = 67680
ELEMENT_SET_NO = 999
REV_AT_EPOCH   = 227
BSTAR          = .45495E-3
MEAN_MOTION_DOT = .10625E-3
MEAN_MOTION_DDOT = 0

CCSDS_OMM_VERS = 2.0
CREATION_DATE  = 
ORIGINATOR     = 

OBJECT_NAME    = 2026-023H
OBJECT_ID      = 2026-023H
CENTER_NAME    = EARTH
REF_FRAME      = TEME
TIME_SYSTEM    = UTC
MEAN_ELEMENT_THEORY = SGP/SGP4

EPOCH          = 2026-02-20T19:55:53.067648
MEAN_MOTION    = 15.22683389
ECCENTRICITY   = .0022951
INCLINATION    = 96.6430
RA_OF_ASC_NODE = 129.2308
ARG_OF_PERICENTER = 175.5632
MEAN_ANOMALY   = 184.5814

EPHEMERIS_TYPE = 0
CLASSIFICATION_TYPE = U
NORAD_CAT_ID   = 67681
ELEMENT_SET_NO = 999
REV_AT_EPOCH   = 227
BSTAR          = .29392E-5
MEAN_MOTION_DOT = .11E-6
MEAN_MOTION_DDOT = 0

CCSDS_OMM_VERS = 2.0
CREATION_DATE  = 
ORIGINATOR     = 

OBJECT_NAME    = 2026-023J
OBJECT_ID      = 2026-023J
CENTER_NAME    = EARTH
REF_FRAME      = TEME
TIME_SYSTEM    = UTC
MEAN_ELEMENT_THEORY = SGP/SGP4

EPOCH          = 2026-02-20T08:52:49.950048
MEAN_MOTION    = 15.22751856
ECCENTRICITY   = .0023014
INCLINATION    = 96.6382
RA_OF_ASC_NODE = 128.8354
ARG_OF_PERICENTER = 173.8856
MEAN_ANOMALY   = 186.2668

EPHEMERIS_TYPE = 0
CLASSIFICATION_TYPE = U
NORAD_CAT_ID   = 67682
ELEMENT_SET_NO = 999
REV_AT_EPOCH   = 220
BSTAR          = .39714E-3
MEAN_MOTION_DOT = .9282E-4
MEAN_MOTION_DDOT = 0

CCSDS_OMM_VERS = 2.0
CREATION_DATE  = 
ORIGINATOR     = 

OBJECT_NAME    = ISS OBJECT XZ
OBJECT_ID      = 1998-067XZ
CENTER_NAME    = EARTH
REF_FRAME      = TEME
TIME_SYSTEM    = UTC
MEAN_ELEMENT_THEORY = SGP/SGP4

EPOCH          = 2026-02-20T14:09:05.981184
MEAN_MOTION    = 15.50393138
ECCENTRICITY   = .0010139
INCLINATION    = 51.6317
RA_OF_ASC_NODE = 156.7216
ARG_OF_PERICENTER = 129.0242
MEAN_ANOMALY   = 231.1651

EPHEMERIS_TYPE = 0
CLASSIFICATION_TYPE = U
NORAD_CAT_ID   = 67683
ELEMENT_SET_NO = 999
REV_AT_EPOCH   = 213
BSTAR          = .59746E-3
MEAN_MOTION_DOT = .34329E-3
MEAN_MOTION_DDOT = 0

CCSDS_OMM_VERS = 2.0
CREATION_DATE  = 
ORIGINATOR     = 

OBJECT_NAME    = GXIBA-1
OBJECT_ID      = 1998-067YA
CENTER_NAME    = EARTH
REF_FRAME      = TEME
TIME_SYSTEM    = UTC
MEAN_ELEMENT_THEORY = SGP/SGP4

EPOCH          = 2026-02-20T13:58:26.229792
MEAN_MOTION    = 15.51598585
ECCENTRICITY   = .0011811
INCLINATION    = 51.6312
RA_OF_ASC_NODE = 156.6723
ARG_OF_PERICENTER = 122.4211
MEAN_ANOMALY   = 237.7923

EPHEMERIS_TYPE = 0
CLASSIFICATION_TYPE = U
NORAD_CAT_ID   = 67684
ELEMENT_SET_NO = 999
REV_AT_EPOCH   = 213
BSTAR          = .1047E-2
MEAN_MOTION_DOT = .63461E-3
MEAN_MOTION_DDOT = 0

CCSDS_OMM_VERS = 2.0
CREATION_DATE  = 
ORIGINATOR     = 

OBJECT_NAME    = CORAL
OBJECT_ID      = 1998-067YB
CENTER_NAME    = EARTH
REF_FRAME      = TEME
TIME_SYSTEM    = UTC
MEAN_ELEMENT_THEORY = SGP/SGP4

EPOCH          = 2026-02-20T17:12:43.666848
MEAN_MOTION    = 15.50604636
ECCENTRICITY   = .0012066
INCLINATION    = 51.6311
RA_OF_ASC_NODE = 156.0725
ARG_OF_PERICENTER = 125.8879
MEAN_ANOMALY   = 234.3232

EPHEMERIS_TYPE = 0
CLASSIFICATION_TYPE = U
NORAD_CAT_ID   = 67685
ELEMENT_SET_NO = 999
REV_AT_EPOCH   = 215
BSTAR          = .64316E-3
MEAN_MOTION_DOT = .37317E-3
MEAN_MOTION_DDOT = 0

CCSDS_OMM_VERS = 2.0
CREATION_DATE  = 
ORIGINATOR     = 

OBJECT_NAME    = ISS OBJECT YC
OBJECT_ID      = 1998-067YC
CENTER_NAME    = EARTH
REF_FRAME      = TEME
TIME_SYSTEM    = UTC
MEAN_ELEMENT_THEORY = SGP/SGP4

EPOCH          = 2026-02-20T14:05:07.570752
MEAN_MOTION    = 15.50839281
ECCENTRICITY   = .0007745
INCLINATION    = 51.6318
RA_OF_ASC_NODE = 156.7029
ARG_OF_PERICENTER = 97.2431
MEAN_ANOMALY   = 262.9439

EPHEMERIS_TYPE = 0
CLASSIFICATION_TYPE = U
NORAD_CAT_ID   = 67686
ELEMENT_SET_NO = 999
REV_AT_EPOCH   = 213
BSTAR          = .7522E-3
MEAN_MOTION_DOT = .44056E-3
MEAN_MOTION_DDOT = 0

CCSDS_OMM_VERS = 2.0
CREATION_DATE  = 
ORIGINATOR     = 

OBJECT_NAME    = LEOPARD
OBJECT_ID      = 1998-067YD
CENTER_NAME    = EARTH
REF_FRAME      = TEME
TIME_SYSTEM    = UTC
MEAN_ELEMENT_THEORY = SGP/SGP4

EPOCH          = 2026-02-20T14:07:56.341056
MEAN_MOTION    = 15.50512324
ECCENTRICITY   = .0007833
INCLINATION    = 51.6317
RA_OF_ASC_NODE = 156.7164
ARG_OF_PERICENTER = 99.8839
MEAN_ANOMALY   = 260.3035

EPHEMERIS_TYPE = 0
CLASSIFICATION_TYPE = U
NORAD_CAT_ID   = 67687
ELEMENT_SET_NO = 999
REV_AT_EPOCH   = 205
BSTAR          = .61232E-3
MEAN_MOTION_DOT = .35321E-3
MEAN_MOTION_DDOT = 0

CCSDS_OMM_VERS = 2.0
CREATION_DATE  = 
ORIGINATOR     = 

OBJECT_NAME    = ISS OBJECT YE
OBJECT_ID      = 1998-067YE
CENTER_NAME    = EARTH
REF_FRAME      = TEME
TIME_SYSTEM    = UTC
MEAN_ELEMENT_THEORY = SGP/SGP4

EPOCH          = 2026-02-20T14:05:56.023008
MEAN_MOTION    = 15.50727857
ECCENTRICITY   = .0007731
INCLINATION    = 51.6326
RA_OF_ASC_NODE = 156.7077
ARG_OF_PERICENTER = 98.0335
MEAN_ANOMALY   = 262.1532

EPHEMERIS_TYPE = 0
CLASSIFICATION_TYPE = U
NORAD_CAT_ID   = 67688
ELEMENT_SET_NO = 999
REV_AT_EPOCH   = 205
BSTAR          = .69449E-3
MEAN_MOTION_DOT = .4046E-3
MEAN_MOTION_DDOT = 0

CCSDS_OMM_VERS = 2.0
CREATION_DATE  = 
ORIGINATOR     = 

OBJECT_NAME    = PRC TEST SPACECRAFT 4
OBJECT_ID      = 2026-024A
CENTER_NAME    = EARTH
REF_FRAME      = TEME
TIME_SYSTEM    = UTC
MEAN_ELEMENT_THEORY = SGP/SGP4

EPOCH          = 2026-02-20T19:30:25.556256
MEAN_MOTION    = 14.91675195
ECCENTRICITY   = .0006185
INCLINATION    = 49.9852
RA_OF_ASC_NODE = 101.9965
ARG_OF_PERICENTER = 295.1242
MEAN_ANOMALY   = 64.9057

EPHEMERIS_TYPE = 0
CLASSIFICATION_TYPE = U
NORAD_CAT_ID   = 67689
ELEMENT_SET_NO = 999
REV_AT_EPOCH   = 206
BSTAR          = .20364E-4
MEAN_MOTION_DOT = -.37E-6
MEAN_MOTION_DDOT = 0

CCSDS_OMM_VERS = 2.0
CREATION_DATE  = 
ORIGINATOR     = 

OBJECT_NAME    = CZ-2F R/B
OBJECT_ID      = 2026-024B
CENTER_NAME    = EARTH
REF_FRAME      = TEME
TIME_SYSTEM    = UTC
MEAN_ELEMENT_THEORY = SGP/SGP4

EPOCH          = 2026-02-20T15:15:45.400896
MEAN_MOTION    = 15.33591158
ECCENTRICITY   = .0176373
INCLINATION    = 49.9865
RA_OF_ASC_NODE = 100.0851
ARG_OF_PERICENTER = 204.1868
MEAN_ANOMALY   = 155.0736

EPHEMERIS_TYPE = 0
CLASSIFICATION_TYPE = U
NORAD_CAT_ID   = 67690
ELEMENT_SET_NO = 999
REV_AT_EPOCH   = 207
BSTAR          = .33368E-3
MEAN_MOTION_DOT = .17892E-3
MEAN_MOTION_DDOT = 0

CCSDS_OMM_VERS = 2.0
CREATION_DATE  = 
ORIGINATOR     = 

OBJECT_NAME    = CZ-2F DEB
OBJECT_ID      = 2026-024C
CENTER_NAME    = EARTH
REF_FRAME      = TEME
TIME_SYSTEM    = UTC
MEAN_ELEMENT_THEORY = SGP/SGP4

EPOCH          = 2026-02-20T13:24:28.958400
MEAN_MOTION    = 15.73823139
ECCENTRICITY   = .0227812
INCLINATION    = 49.9063
RA_OF_ASC_NODE = 97.1850
ARG_OF_PERICENTER = 212.8839
MEAN_ANOMALY   = 145.7788

EPHEMERIS_TYPE = 0
CLASSIFICATION_TYPE = U
NORAD_CAT_ID   = 67691
ELEMENT_SET_NO = 999
REV_AT_EPOCH   = 209
BSTAR          = .81386E-3
MEAN_MOTION_DOT = .706286E-2
MEAN_MOTION_DDOT = .10405E-4

