2026-023G               
1 67680U 26023G   26051.83065488  .00010625  00000+0  45495-3 0  9999
2 67680  96.6280 129.2227 0022851 176.1046 184.0375 15.22695863  2274
2026-023H               
1 67681U 26023H   26051.83047532  .00000011  00000+0  29392-5 0  9998
2 67681  96.6430 129.2308 0022951 175.5632 184.5814 15.22683389  2270
2026-023J               
1 67682U 26023J   26051.37002257  .00009282  00000+0  39714-3 0  9999
2 67682  96.6382 128.8354 0023014 173.8856 186.2668 15.22751856  2207
ISS OBJECT XZ           
1 67683U 98067XZ  26051.58965256  .00034329  00000+0  59746-3 0  9994
2 67683  51.6317 156.7216 0010139 129.0242 231.1651 15.50393138  2130
GXIBA-1                 
1 67684U 98067YA  26051.58224803  .00063461  00000+0  10470-2 0  9990
2 67684  51.6312 156.6723 0011811 122.4211 237.7923 15.51598585  2137
CORAL                   
1 67685U 98067YB  26051.71717207  .00037317  00000+0  64316-3 0  9991
2 67685  51.6311 156.0725 0012066 125.8879 234.3232 15.50604636  2155
ISS OBJECT YC           
1 67686U 98067YC  26051.58689318  .00044056  00000+0  75220-3 0  9992
2 67686  51.6318 156.7029 0007745  97.2431 262.9439 15.50839281  2131
LEOPARD                 
1 67687U 98067YD  26051.58884654  .00035321  00000+0  61232-3 0  9996
2 67687  51.6317 156.7164 0007833  99.8839 260.3035 15.50512324  2050
ISS OBJECT YE           
1 67688U 98067YE  26051.58745397  .00040460  00000+0  69449-3 0  9995
2 67688  51.6326 156.7077 0007731  98.0335 262.1532 15.50727857  2054
PRC TEST SPACECRAFT 4   
1 67689U 26024A   26051.81279579 -.00000037  00000+0  20364-4 0  9991
2 67689  49.9852 101.9965 0006185 295.1242  64.9057 14.91675195  2068
CZ-2F R/B               
1 67690U 26024B   26051.63594214  .00017892  00000+0  33368-3 0  9992
2 67690  49.9865 100.0851 0176373 204.1868 155.0736 15.33591158  2079
CZ-2F DEB               
1 67691U 26024C   26051.55866850  .00706286  10405-4  81386-3 0  9992
2 67691  49.9063  97.1850 0227812 212.8839 145.7788 15.73823139  2090
